[{"OBJECT_NAME":"GRUS-1D","OBJECT_ID":"2021-022E","EPOCH":"2026-03-09T23:44:16.341792","MEAN_MOTION":14.9882754,"ECCENTRICITY":0.00122189,"INCLINATION":97.5533,"RA_OF_ASC_NODE":315.589,"ARG_OF_PERICENTER":289.6697,"MEAN_ANOMALY":70.3207,"EPHEMERIS_TYPE":0,"CLASSIFICATION_TYPE":"U","NORAD_CAT_ID":47936,"ELEMENT_SET_NO":999,"REV_AT_EPOCH":27104,"BSTAR":0.00015470185,"MEAN_MOTION_DOT":1.811e-5,"MEAN_MOTION_DDOT":0},{"OBJECT_NAME":"STARLINK-5580","OBJECT_ID":"2023-028H","EPOCH":"2026-03-09T22:04:41.401632","MEAN_MOTION":14.98323971,"ECCENTRICITY":0.00032696,"INCLINATION":69.9985,"RA_OF_ASC_NODE":243.9125,"ARG_OF_PERICENTER":267.398,"MEAN_ANOMALY":92.6805,"EPHEMERIS_TYPE":0,"CLASSIFICATION_TYPE":"U","NORAD_CAT_ID":55748,"ELEMENT_SET_NO":999,"REV_AT_EPOCH":16607,"BSTAR":-0.00011136482,"MEAN_MOTION_DOT":-1.421e-5,"MEAN_MOTION_DDOT":0}]
